{
    "icao": "KSAN",
    "ts": 1763013060,
    "raw": "METAR KSAN 130551Z 00000KT 10SM SCT170 BKN250 18/16 A3006 RMK AO2 SLP180 T01830156 10189 20178 50004",
    "vis_sm": 10,
    "wx": "",
    "ceil_ft": 0,
    "vv_ft": 0,
    "wind_dir": 0,
    "wind_kt": 0,
    "rvr": [],
    "source": "AWC"
}