{
    "icao": "KSEE",
    "ts": 1763013300,
    "raw": "METAR KSEE 130555Z AUTO 00000KT 10SM CLR 18/12 A3005 RMK AO2",
    "vis_sm": 10,
    "wx": "",
    "ceil_ft": 0,
    "vv_ft": 0,
    "wind_dir": 0,
    "wind_kt": 0,
    "rvr": [],
    "source": "AWC"
}