{
    "raw_text": "METAR MMTJ 140049Z 00000KT 10SM SCT190 BKN240 21/11 A3002 RMK 8/079 HZY",
    "observation_time": 1763081340,
    "visibility_sm": null,
    "wx_string": null,
    "ceiling": null
}