{
    "raw_text": "TAF MMTJ 132200Z 1400/1500 26010KT P6SM SCT080 TX24/1420Z TN12/1412Z BECMG 1405/1407 00000KT BKN080 BKN240 BECMG 1414/1416 13008KT TEMPO 1417/1421 4SM RA BKN020 OVC080"
}