{
    "raw_text": "TAF COR MMTJ 130544Z 1306/1406 00000KT P6SM OVC200 TX27/1319Z TN14/1314Z FM130900 00000KT 5SM HZ SCT015 BKN200 TEMPO 1311/1315 2SM BR BKN008 FM131600 30010KT P6SM SCT200 FM140200 23005KT P6SM BKN200"
}